{"type": "FeatureCollection", "features": [ {"type": "Feature", "properties": {"norad_id": 66896, "name": "STARLINK-35791", "group": "last-30-days", "lat": -1.280091660792369, "lon": -129.6319911647833, "alt_km": 327.5015507625394, "timestamp": "2025-12-17T13:48:36.281257+00:00", "meta": {"OBJECT_NAME": "STARLINK-35791", "OBJECT_ID": "2025-283U", "EPOCH": "2025-12-17T06:00:00.999648", "MEAN_MOTION": 15.82523746, "ECCENTRICITY": 8.868e-05, "INCLINATION": 53.1551, "RA_OF_ASC_NODE": 51.0421, "ARG_OF_PERICENTER": 83.7902, "MEAN_ANOMALY": 43.3663, "EPHEMERIS_TYPE": 0, "CLASSIFICATION_TYPE": "U", "NORAD_CAT_ID": 66896, "ELEMENT_SET_NO": 999, "REV_AT_EPOCH": 315, "BSTAR": -0.0079271946, "MEAN_MOTION_DOT": -0.01492752, "MEAN_MOTION_DDOT": 0}, "tle": {"line1": "1 66896U 25283U   25351.25001157 -.01492752  00000+0 -79272-2 0  9992", "line2": "2 66896  53.1551  51.0421 0000886  83.7902  43.3663 15.82523746  3158"}}, "geometry": {"type": "Point", "coordinates": [-129.6319911647833, -1.280091660792369]}}, {"type": "Feature", "properties": {"norad_id": 66897, "name": "STARLINK-36079", "group": "last-30-days", "lat": -5.360535840029466, "lon": -126.56755964295748, "alt_km": 328.2830553825743, "timestamp": "2025-12-17T13:48:36.281268+00:00", "meta": {"OBJECT_NAME": "STARLINK-36079", "OBJECT_ID": "2025-283V", "EPOCH": "2025-12-17T06:00:00.999648", "MEAN_MOTION": 15.82441295, "ECCENTRICITY": 0.00011368, "INCLINATION": 53.1549, "RA_OF_ASC_NODE": 51.0316, "ARG_OF_PERICENTER": 81.2795, "MEAN_ANOMALY": 51.0822, "EPHEMERIS_TYPE": 0, "CLASSIFICATION_TYPE": "U", "NORAD_CAT_ID": 66897, "ELEMENT_SET_NO": 999, "REV_AT_EPOCH": 315, "BSTAR": -0.0080305454, "MEAN_MOTION_DOT": -0.01504873, "MEAN_MOTION_DDOT": 0}, "tle": {"line1": "1 66897U 25283V   25351.25001157 -.01504873  00000+0 -80305-2 0  9990", "line2": "2 66897  53.1549  51.0316 0001136  81.2795  51.0822 15.82441295  3152"}}, "geometry": {"type": "Point", "coordinates": [-126.56755964295748, -5.360535840029466]}}, {"type": "Feature", "properties": {"norad_id": 66898, "name": "STARLINK-36065", "group": "last-30-days", "lat": -7.460952696818831, "lon": -124.97282039782372, "alt_km": 328.72701476661587, "timestamp": "2025-12-17T13:48:36.281280+00:00", "meta": {"OBJECT_NAME": "STARLINK-36065", "OBJECT_ID": "2025-283W", "EPOCH": "2025-12-17T06:00:00.999648", "MEAN_MOTION": 15.8239653, "ECCENTRICITY": 0.00010242, "INCLINATION": 53.1546, "RA_OF_ASC_NODE": 51.0253, "ARG_OF_PERICENTER": 78.208, "MEAN_ANOMALY": 56.8491, "EPHEMERIS_TYPE": 0, "CLASSIFICATION_TYPE": "U", "NORAD_CAT_ID": 66898, "ELEMENT_SET_NO": 999, "REV_AT_EPOCH": 315, "BSTAR": -0.0081273671, "MEAN_MOTION_DOT": -0.01517918, "MEAN_MOTION_DDOT": 0}, "tle": {"line1": "1 66898U 25283W   25351.25001157 -.01517918  00000+0 -81274-2 0  9991", "line2": "2 66898  53.1546  51.0253 0001024  78.2080  56.8491 15.82396530  3155"}}, "geometry": {"type": "Point", "coordinates": [-124.97282039782372, -7.460952696818831]}}, {"type": "Feature", "properties": {"norad_id": 66899, "name": "STARLINK-36064", "group": "last-30-days", "lat": -9.46489210886882, "lon": -123.43202955893581, "alt_km": 329.17493047184325, "timestamp": "2025-12-17T13:48:36.281289+00:00", "meta": {"OBJECT_NAME": "STARLINK-36064", "OBJECT_ID": "2025-283X", "EPOCH": "2025-12-17T06:00:00.999648", "MEAN_MOTION": 15.82353552, "ECCENTRICITY": 0.00012398, "INCLINATION": 53.1545, "RA_OF_ASC_NODE": 51.0201, "ARG_OF_PERICENTER": 77.8337, "MEAN_ANOMALY": 59.7945, "EPHEMERIS_TYPE": 0, "CLASSIFICATION_TYPE": "U", "NORAD_CAT_ID": 66899, "ELEMENT_SET_NO": 999, "REV_AT_EPOCH": 309, "BSTAR": -0.0081663398, "MEAN_MOTION_DOT": -0.01521745, "MEAN_MOTION_DDOT": 0}, "tle": {"line1": "1 66899U 25283X   25351.25001157 -.01521745  00000+0 -81663-2 0  9997", "line2": "2 66899  53.1545  51.0201 0001239  77.8337  59.7945 15.82353552  3092"}}, "geometry": {"type": "Point", "coordinates": [-123.43202955893581, -9.46489210886882]}}, {"type": "Feature", "properties": {"norad_id": 66900, "name": "STARLINK-36074", "group": "last-30-days", "lat": -11.526191336329564, "lon": -121.82280580745554, "alt_km": 329.5469356725125, "timestamp": "2025-12-17T13:48:36.281299+00:00", "meta": {"OBJECT_NAME": "STARLINK-36074", "OBJECT_ID": "2025-283Y", "EPOCH": "2025-12-17T06:00:00.999648", "MEAN_MOTION": 15.82307337, "ECCENTRICITY": 0.00012161, "INCLINATION": 53.1545, "RA_OF_ASC_NODE": 51.0145, "ARG_OF_PERICENTER": 80.5077, "MEAN_ANOMALY": 59.7817, "EPHEMERIS_TYPE": 0, "CLASSIFICATION_TYPE": "U", "NORAD_CAT_ID": 66900, "ELEMENT_SET_NO": 999, "REV_AT_EPOCH": 315, "BSTAR": -0.0082381376, "MEAN_MOTION_DOT": -0.01530534, "MEAN_MOTION_DDOT": 0}, "tle": {"line1": "1 66900U 25283Y   25351.25001157 -.01530534  00000+0 -82381-2 0  9994", "line2": "2 66900  53.1545  51.0145 0001216  80.5077  59.7817 15.82307337  3154"}}, "geometry": {"type": "Point", "coordinates": [-121.82280580745554, -11.526191336329564]}}, {"type": "Feature", "properties": {"norad_id": 66901, "name": "STARLINK-36043", "group": "last-30-days", "lat": -13.401392532146037, "lon": -120.33205864740994, "alt_km": 329.8514101676474, "timestamp": "2025-12-17T13:48:36.281308+00:00", "meta": {"OBJECT_NAME": "STARLINK-36043", "OBJECT_ID": "2025-283Z", "EPOCH": "2025-12-17T06:00:00.999648", "MEAN_MOTION": 15.82282396, "ECCENTRICITY": 0.00011538, "INCLINATION": 53.1548, "RA_OF_ASC_NODE": 51.0095, "ARG_OF_PERICENTER": 79.3635, "MEAN_ANOMALY": 63.3366, "EPHEMERIS_TYPE": 0, "CLASSIFICATION_TYPE": "U", "NORAD_CAT_ID": 66901, "ELEMENT_SET_NO": 999, "REV_AT_EPOCH": 315, "BSTAR": -0.0082842623, "MEAN_MOTION_DOT": -0.01536417, "MEAN_MOTION_DDOT": 0}, "tle": {"line1": "1 66901U 25283Z   25351.25001157 -.01536417  00000+0 -82843-2 0  9994", "line2": "2 66901  53.1548  51.0095 0001153  79.3635  63.3366 15.82282396  3155"}}, "geometry": {"type": "Point", "coordinates": [-120.33205864740994, -13.401392532146037]}}, {"type": "Feature", "properties": {"norad_id": 66902, "name": "STARLINK-35983", "group": "last-30-days", "lat": -15.522857920092891, "lon": -118.60769587882048, "alt_km": 330.2927998625337, "timestamp": "2025-12-17T13:48:36.281317+00:00", "meta": {"OBJECT_NAME": "STARLINK-35983", "OBJECT_ID": "2025-283AA", "EPOCH": "2025-12-17T06:00:00.999648", "MEAN_MOTION": 15.82232508, "ECCENTRICITY": 0.0001065, "INCLINATION": 53.1546, "RA_OF_ASC_NODE": 51.004, "ARG_OF_PERICENTER": 74.2322, "MEAN_ANOMALY": 71.2401, "EPHEMERIS_TYPE": 0, "CLASSIFICATION_TYPE": "U", "NORAD_CAT_ID": 66902, "ELEMENT_SET_NO": 999, "REV_AT_EPOCH": 315, "BSTAR": -0.00840727, "MEAN_MOTION_DOT": -0.01553123, "MEAN_MOTION_DDOT": 0}, "tle": {"line1": "1 66902U 25283AA  25351.25001157 -.01553123  00000+0 -84073-2 0  9995", "line2": "2 66902  53.1546  51.0040 0001065  74.2322  71.2401 15.82232508  3151"}}, "geometry": {"type": "Point", "coordinates": [-118.60769587882048, -15.522857920092891]}}, {"type": "Feature", "properties": {"norad_id": 66903, "name": "STARLINK-36077", "group": "last-30-days", "lat": -17.34885116522092, "lon": -117.08622544702999, "alt_km": 330.56270158926964, "timestamp": "2025-12-17T13:48:36.281326+00:00", "meta": {"OBJECT_NAME": "STARLINK-36077", "OBJECT_ID": "2025-283AB", "EPOCH": "2025-12-17T06:00:00.999648", "MEAN_MOTION": 15.82204185, "ECCENTRICITY": 0.0001226, "INCLINATION": 53.155, "RA_OF_ASC_NODE": 50.9991, "ARG_OF_PERICENTER": 81.1883, "MEAN_ANOMALY": 66.6568, "EPHEMERIS_TYPE": 0, "CLASSIFICATION_TYPE": "U", "NORAD_CAT_ID": 66903, "ELEMENT_SET_NO": 999, "REV_AT_EPOCH": 315, "BSTAR": -0.0084186497, "MEAN_MOTION_DOT": -0.01553259, "MEAN_MOTION_DDOT": 0}, "tle": {"line1": "1 66903U 25283AB  25351.25001157 -.01553259  00000+0 -84186-2 0  9991", "line2": "2 66903  53.1550  50.9991 0001226  81.1883  66.6568 15.82204185  3150"}}, "geometry": {"type": "Point", "coordinates": [-117.08622544702999, -17.34885116522092]}}, {"type": "Feature", "properties": {"norad_id": 66904, "name": "STARLINK-36059", "group": "last-30-days", "lat": -19.224059536361793, "lon": -115.48111338458052, "alt_km": 330.8403580638487, "timestamp": "2025-12-17T13:48:36.281338+00:00", "meta": {"OBJECT_NAME": "STARLINK-36059", "OBJECT_ID": "2025-283AC", "EPOCH": "2025-12-17T06:00:00.999648", "MEAN_MOTION": 15.82173293, "ECCENTRICITY": 0.00011173, "INCLINATION": 53.1546, "RA_OF_ASC_NODE": 50.9937, "ARG_OF_PERICENTER": 80.2409, "MEAN_ANOMALY": 70.0672, "EPHEMERIS_TYPE": 0, "CLASSIFICATION_TYPE": "U", "NORAD_CAT_ID": 66904, "ELEMENT_SET_NO": 999, "REV_AT_EPOCH": 315, "BSTAR": -0.0084868754, "MEAN_MOTION_DOT": -0.01562196, "MEAN_MOTION_DDOT": 0}, "tle": {"line1": "1 66904U 25283AC  25351.25001157 -.01562196  00000+0 -84869-2 0  9990", "line2": "2 66904  53.1546  50.9937 0001117  80.2409  70.0672 15.82173293  3159"}}, "geometry": {"type": "Point", "coordinates": [-115.48111338458052, -19.224059536361793]}}, {"type": "Feature", "properties": {"norad_id": 66905, "name": "STARLINK-36075", "group": "last-30-days", "lat": -20.926788683817914, "lon": -113.98029334772188, "alt_km": 331.0439561127714, "timestamp": "2025-12-17T13:48:36.281347+00:00", "meta": {"OBJECT_NAME": "STARLINK-36075", "OBJECT_ID": "2025-283AD", "EPOCH": "2025-12-17T06:00:00.999648", "MEAN_MOTION": 15.82161611, "ECCENTRICITY": 0.00010752, "INCLINATION": 53.1547, "RA_OF_ASC_NODE": 50.9893, "ARG_OF_PERICENTER": 79.901, "MEAN_ANOMALY": 72.6386, "EPHEMERIS_TYPE": 0, "CLASSIFICATION_TYPE": "U", "NORAD_CAT_ID": 66905, "ELEMENT_SET_NO": 999, "REV_AT_EPOCH": 315, "BSTAR": -0.0085243424, "MEAN_MOTION_DOT": -0.01567439, "MEAN_MOTION_DDOT": 0}, "tle": {"line1": "1 66905U 25283AD  25351.25001157 -.01567439  00000+0 -85243-2 0  9993", "line2": "2 66905  53.1547  50.9893 0001075  79.9010  72.6386 15.82161611  3159"}}, "geometry": {"type": "Point", "coordinates": [-113.98029334772188, -20.926788683817914]}}]}